[
    {
        "CCSDS_OMM_VERS": "3.0",
        "COMMENT": "GENERATED VIA SPACE-TRACK.ORG API",
        "CREATION_DATE": "2025-03-02T18:08:23",
        "ORIGINATOR": "18 SPCS",
        "OBJECT_NAME": "GALILEO 8 (264)",
        "OBJECT_ID": "2015-017B",
        "CENTER_NAME": "EARTH",
        "REF_FRAME": "TEME",
        "TIME_SYSTEM": "UTC",
        "MEAN_ELEMENT_THEORY": "SGP4",
        "EPOCH": "2025-03-02T06:25:16.847904",
        "MEAN_MOTION": "1.70475279",
        "ECCENTRICITY": "0.00042260",
        "INCLINATION": "56.9122",
        "RA_OF_ASC_NODE": "354.4670",
        "ARG_OF_PERICENTER": "281.5481",
        "MEAN_ANOMALY": "78.4114",
        "EPHEMERIS_TYPE": "0",
        "CLASSIFICATION_TYPE": "U",
        "NORAD_CAT_ID": "40545",
        "ELEMENT_SET_NO": "999",
        "REV_AT_EPOCH": "2420",
        "BSTAR": "0.00000000000000",
        "MEAN_MOTION_DOT": "-0.00000087",
        "MEAN_MOTION_DDOT": "0.0000000000000",
        "SEMIMAJOR_AXIS": "29600.172",
        "PERIOD": "844.697",
        "APOAPSIS": "23234.546",
        "PERIAPSIS": "23209.528",
        "OBJECT_TYPE": "PAYLOAD",
        "RCS_SIZE": "LARGE",
        "COUNTRY_CODE": "ESA",
        "LAUNCH_DATE": "2015-03-27",
        "SITE": "FRGUI",
        "DECAY_DATE": null,
        "FILE": "4657142",
        "GP_ID": "282085209",
        "TLE_LINE0": "0 GALILEO 8 (264)",
        "TLE_LINE1": "1 40545U 15017B   25061.26755611 -.00000087  00000-0  00000-0 0  9995",
        "TLE_LINE2": "2 40545  56.9122 354.4670 0004226 281.5481  78.4114  1.70475279 24202"
    }
]